[{"OBJECT_NAME":"STARLINK-3846","OBJECT_ID":"2022-052BB","EPOCH":"2025-07-28T05:29:40.400448","MEAN_MOTION":15.08831955,"ECCENTRICITY":9.04e-5,"INCLINATION":53.2165,"RA_OF_ASC_NODE":186.8711,"ARG_OF_PERICENTER":83.3028,"MEAN_ANOMALY":276.8067,"EPHEMERIS_TYPE":0,"CLASSIFICATION_TYPE":"U","NORAD_CAT_ID":52647,"ELEMENT_SET_NO":999,"REV_AT_EPOCH":17762,"BSTAR":7.3699e-6,"MEAN_MOTION_DOT":-1.7e-6,"MEAN_MOTION_DDOT":0},{"OBJECT_NAME":"STARLINK-3854","OBJECT_ID":"2022-052BC","EPOCH":"2025-07-28T05:34:57.338112","MEAN_MOTION":15.08833611,"ECCENTRICITY":0.000141,"INCLINATION":53.2173,"RA_OF_ASC_NODE":186.7486,"ARG_OF_PERICENTER":68.4445,"MEAN_ANOMALY":291.6697,"EPHEMERIS_TYPE":0,"CLASSIFICATION_TYPE":"U","NORAD_CAT_ID":52648,"ELEMENT_SET_NO":999,"REV_AT_EPOCH":17762,"BSTAR":-2.0059e-5,"MEAN_MOTION_DOT":-6.07e-6,"MEAN_MOTION_DDOT":0},{"OBJECT_NAME":"STARLINK-3868","OBJECT_ID":"2022-052BD","EPOCH":"2025-07-27T16:14:44.982528","MEAN_MOTION":15.08823088,"ECCENTRICITY":0.0001237,"INCLINATION":53.2159,"RA_OF_ASC_NODE":189.0935,"ARG_OF_PERICENTER":83.9859,"MEAN_ANOMALY":276.1274,"EPHEMERIS_TYPE":0,"CLASSIFICATION_TYPE":"U","NORAD_CAT_ID":52649,"ELEMENT_SET_NO":999,"REV_AT_EPOCH":17717,"BSTAR":-0.00013151,"MEAN_MOTION_DOT":-2.379e-5,"MEAN_MOTION_DDOT":0},{"OBJECT_NAME":"STARLINK-3891","OBJECT_ID":"2022-052BE","EPOCH":"2025-07-28T04:11:30.841728","MEAN_MOTION":15.08847345,"ECCENTRICITY":0.0001656,"INCLINATION":53.2162,"RA_OF_ASC_NODE":177.1131,"ARG_OF_PERICENTER":78.8352,"MEAN_ANOMALY":281.2826,"EPHEMERIS_TYPE":0,"CLASSIFICATION_TYPE":"U","NORAD_CAT_ID":52650,"ELEMENT_SET_NO":999,"REV_AT_EPOCH":17775,"BSTAR":1.4989e-5,"MEAN_MOTION_DOT":-4.9e-7,"MEAN_MOTION_DDOT":0},{"OBJECT_NAME":"STARLINK-4004","OBJECT_ID":"2022-053A","EPOCH":"2025-07-28T01:43:49.852128","MEAN_MOTION":15.08835957,"ECCENTRICITY":0.0001404,"INCLINATION":53.2186,"RA_OF_ASC_NODE":82.4794,"ARG_OF_PERICENTER":92.9687,"MEAN_ANOMALY":267.1466,"EPHEMERIS_TYPE":0,"CLASSIFICATION_TYPE":"U","NORAD_CAT_ID":52656,"ELEMENT_SET_NO":999,"REV_AT_EPOCH":17720,"BSTAR":-1.3362e-5,"MEAN_MOTION_DOT":-5.01e-6,"MEAN_MOTION_DDOT":0},{"OBJECT_NAME":"STARLINK-4084","OBJECT_ID":"2022-053B","EPOCH":"2025-07-27T21:50:43.310400","MEAN_MOTION":15.0884127,"ECCENTRICITY":0.0001665,"INCLINATION":53.2171,"RA_OF_ASC_NODE":83.5133,"ARG_OF_PERICENTER":93.9742,"MEAN_ANOMALY":266.144,"EPHEMERIS_TYPE":0,"CLASSIFICATION_TYPE":"U","NORAD_CAT_ID":52657,"ELEMENT_SET_NO":999,"REV_AT_EPOCH":17747,"BSTAR":0.00010309,"MEAN_MOTION_DOT":1.353e-5,"MEAN_MOTION_DDOT":0},{"OBJECT_NAME":"STARLINK-4082","OBJECT_ID":"2022-053C","EPOCH":"2025-07-28T04:58:31.136448","MEAN_MOTION":15.08837543,"ECCENTRICITY":0.0001369,"INCLINATION":53.2183,"RA_OF_ASC_NODE":81.8628,"ARG_OF_PERICENTER":91.8304,"MEAN_ANOMALY":268.2845,"EPHEMERIS_TYPE":0,"CLASSIFICATION_TYPE":"U","NORAD_CAT_ID":52658,"ELEMENT_SET_NO":999,"REV_AT_EPOCH":17734,"BSTAR":5.6119e-6,"MEAN_MOTION_DOT":-1.99e-6,"MEAN_MOTION_DDOT":0},{"OBJECT_NAME":"STARLINK-3960","OBJECT_ID":"2022-053D","EPOCH":"2025-07-27T22:31:40.193760","MEAN_MOTION":15.08835669,"ECCENTRICITY":0.0001488,"INCLINATION":53.2184,"RA_OF_ASC_NODE":83.0178,"ARG_OF_PERICENTER":102.0831,"MEAN_ANOMALY":258.0328,"EPHEMERIS_TYPE":0,"CLASSIFICATION_TYPE":"U","NORAD_CAT_ID":52659,"ELEMENT_SET_NO":999,"REV_AT_EPOCH":17729,"BSTAR":-1.4567e-5,"MEAN_MOTION_DOT":-5.2e-6,"MEAN_MOTION_DDOT":0},{"OBJECT_NAME":"STARLINK-4081","OBJECT_ID":"2022-053E","EPOCH":"2025-07-27T20:50:59.782272","MEAN_MOTION":15.08834438,"ECCENTRICITY":0.0001474,"INCLINATION":53.2182,"RA_OF_ASC_NODE":83.3804,"ARG_OF_PERICENTER":91.4962,"MEAN_ANOMALY":268.6199,"EPHEMERIS_TYPE":0,"CLASSIFICATION_TYPE":"U","NORAD_CAT_ID":52660,"ELEMENT_SET_NO":999,"REV_AT_EPOCH":17717,"BSTAR":-1.7483e-5,"MEAN_MOTION_DOT":-5.66e-6,"MEAN_MOTION_DDOT":0},{"OBJECT_NAME":"STARLINK-4042","OBJECT_ID":"2022-053F","EPOCH":"2025-07-27T22:21:04.091904","MEAN_MOTION":15.08845694,"ECCENTRICITY":0.0001447,"INCLINATION":53.2179,"RA_OF_ASC_NODE":83.0997,"ARG_OF_PERICENTER":87.7739,"MEAN_ANOMALY":272.3419,"EPHEMERIS_TYPE":0,"CLASSIFICATION_TYPE":"U","NORAD_CAT_ID":52661,"ELEMENT_SET_NO":999,"REV_AT_EPOCH":17711,"BSTAR":4.8137e-5,"MEAN_MOTION_DOT":4.78e-6,"MEAN_MOTION_DDOT":0},{"OBJECT_NAME":"STARLINK-4044","OBJECT_ID":"2022-053G","EPOCH":"2025-07-28T01:21:15.171840","MEAN_MOTION":15.08841412,"ECCENTRICITY":0.0001542,"INCLINATION":53.2179,"RA_OF_ASC_NODE":82.5381,"ARG_OF_PERICENTER":90.1691,"MEAN_ANOMALY":269.9478,"EPHEMERIS_TYPE":0,"CLASSIFICATION_TYPE":"U","NORAD_CAT_ID":52662,"ELEMENT_SET_NO":999,"REV_AT_EPOCH":17713,"BSTAR":2.5175e-5,"MEAN_MOTION_DOT":1.13e-6,"MEAN_MOTION_DDOT":0},{"OBJECT_NAME":"STARLINK-4037","OBJECT_ID":"2022-053H","EPOCH":"2025-07-27T22:05:11.896512","MEAN_MOTION":15.0882153,"ECCENTRICITY":0.0001393,"INCLINATION":53.2175,"RA_OF_ASC_NODE":83.1524,"ARG_OF_PERICENTER":91.5296,"MEAN_ANOMALY":268.5855,"EPHEMERIS_TYPE":0,"CLASSIFICATION_TYPE":"U","NORAD_CAT_ID":52663,"ELEMENT_SET_NO":999,"REV_AT_EPOCH":17711,"BSTAR":-0.00016798,"MEAN_MOTION_DOT":-2.959e-5,"MEAN_MOTION_DDOT":0},{"OBJECT_NAME":"STARLINK-4070","OBJECT_ID":"2022-053J","EPOCH":"2025-07-27T22:15:46.768032","MEAN_MOTION":15.08839387,"ECCENTRICITY":0.0001568,"INCLINATION":53.219,"RA_OF_ASC_NODE":83.1128,"ARG_OF_PERICENTER":88.3915,"MEAN_ANOMALY":271.7257,"EPHEMERIS_TYPE":0,"CLASSIFICATION_TYPE":"U","NORAD_CAT_ID":52664,"ELEMENT_SET_NO":999,"REV_AT_EPOCH":17711,"BSTAR":-1.0556e-5,"MEAN_MOTION_DOT":-4.56e-6,"MEAN_MOTION_DDOT":0},{"OBJECT_NAME":"STARLINK-4064","OBJECT_ID":"2022-053K","EPOCH":"2025-07-27T21:49:17.536800","MEAN_MOTION":15.08830675,"ECCENTRICITY":0.0001368,"INCLINATION":53.2173,"RA_OF_ASC_NODE":83.1999,"ARG_OF_PERICENTER":95.8229,"MEAN_ANOMALY":264.2919,"EPHEMERIS_TYPE":0,"CLASSIFICATION_TYPE":"U","NORAD_CAT_ID":52665,"ELEMENT_SET_NO":999,"REV_AT_EPOCH":17711,"BSTAR":0.0002357,"MEAN_MOTION_DOT":3.464e-5,"MEAN_MOTION_DDOT":0},{"OBJECT_NAME":"STARLINK-4079","OBJECT_ID":"2022-053L","EPOCH":"2025-07-28T01:52:58.928448","MEAN_MOTION":15.0883502,"ECCENTRICITY":0.0001295,"INCLINATION":53.219,"RA_OF_ASC_NODE":82.0572,"ARG_OF_PERICENTER":93.3992,"MEAN_ANOMALY":266.7149,"EPHEMERIS_TYPE":0,"CLASSIFICATION_TYPE":"U","NORAD_CAT_ID":52666,"ELEMENT_SET_NO":999,"REV_AT_EPOCH":17714,"BSTAR":4.5363e-5,"MEAN_MOTION_DOT":4.34e-6,"MEAN_MOTION_DDOT":0},{"OBJECT_NAME":"STARLINK-4076","OBJECT_ID":"2022-053M","EPOCH":"2025-07-27T21:43:59.242656","MEAN_MOTION":15.08837735,"ECCENTRICITY":0.0001315,"INCLINATION":53.2173,"RA_OF_ASC_NODE":83.2172,"ARG_OF_PERICENTER":89.5724,"MEAN_ANOMALY":270.5418,"EPHEMERIS_TYPE":0,"CLASSIFICATION_TYPE":"U","NORAD_CAT_ID":52667,"ELEMENT_SET_NO":999,"REV_AT_EPOCH":17711,"BSTAR":7.4948e-5,"MEAN_MOTION_DOT":9.05e-6,"MEAN_MOTION_DDOT":0},{"OBJECT_NAME":"STARLINK-4067","OBJECT_ID":"2022-053N","EPOCH":"2025-07-28T01:05:20.863968","MEAN_MOTION":15.08844561,"ECCENTRICITY":0.0001252,"INCLINATION":53.2158,"RA_OF_ASC_NODE":82.5886,"ARG_OF_PERICENTER":89.0566,"MEAN_ANOMALY":271.0569,"EPHEMERIS_TYPE":0,"CLASSIFICATION_TYPE":"U","NORAD_CAT_ID":52668,"ELEMENT_SET_NO":999,"REV_AT_EPOCH":17713,"BSTAR":4.1524e-5,"MEAN_MOTION_DOT":3.73e-6,"MEAN_MOTION_DDOT":0}]
