STARLINK-3846           
1 52647U 22052BB  25209.22893982 -.00000170  00000+0  73699-5 0  9993
2 52647  53.2165 186.8711 0000904  83.3028 276.8067 15.08831955177621
STARLINK-3854           
1 52648U 22052BC  25209.23260808 -.00000607  00000+0 -20059-4 0  9997
2 52648  53.2173 186.7486 0001410  68.4445 291.6697 15.08833611177624
STARLINK-3868           
1 52649U 22052BD  25208.67690952 -.00002379  00000+0 -13151-3 0  9994
2 52649  53.2159 189.0935 0001237  83.9859 276.1274 15.08823088177178
STARLINK-3891           
1 52650U 22052BE  25209.17466252 -.00000049  00000+0  14989-4 0  9998
2 52650  53.2162 177.1131 0001656  78.8352 281.2826 15.08847345177752
STARLINK-4004           
1 52656U 22053A   25209.07210477 -.00000501  00000+0 -13362-4 0  9998
2 52656  53.2186  82.4794 0001404  92.9687 267.1466 15.08835957177205
STARLINK-4084           
1 52657U 22053B   25208.91022350  .00001353  00000+0  10309-3 0  9993
2 52657  53.2171  83.5133 0001665  93.9742 266.1440 15.08841270177476
STARLINK-4082           
1 52658U 22053C   25209.20730482 -.00000199  00000+0  56119-5 0  9998
2 52658  53.2183  81.8628 0001369  91.8304 268.2845 15.08837543177348
STARLINK-3960           
1 52659U 22053D   25208.93865965 -.00000520  00000+0 -14567-4 0  9992
2 52659  53.2184  83.0178 0001488 102.0831 258.0328 15.08835669177290
STARLINK-4081           
1 52660U 22053E   25208.86874748 -.00000566  00000+0 -17483-4 0  9995
2 52660  53.2182  83.3804 0001474  91.4962 268.6199 15.08834438177173
STARLINK-4042           
1 52661U 22053F   25208.93129736  .00000478  00000+0  48137-4 0  9994
2 52661  53.2179  83.0997 0001447  87.7739 272.3419 15.08845694177117
STARLINK-4044           
1 52662U 22053G   25209.05642560  .00000113  00000+0  25175-4 0  9997
2 52662  53.2179  82.5381 0001542  90.1691 269.9478 15.08841412177133
STARLINK-4037           
1 52663U 22053H   25208.92027658 -.00002959  00000+0 -16798-3 0  9990
2 52663  53.2175  83.1524 0001393  91.5296 268.5855 15.08821530177117
STARLINK-4070           
1 52664U 22053J   25208.92762463 -.00000456  00000+0 -10556-4 0  9998
2 52664  53.2190  83.1128 0001568  88.3915 271.7257 15.08839387177112
STARLINK-4064           
1 52665U 22053K   25208.90923075  .00003464  00000+0  23570-3 0  9994
2 52665  53.2173  83.1999 0001368  95.8229 264.2919 15.08830675177112
STARLINK-4079           
1 52666U 22053L   25209.07845982  .00000434  00000+0  45363-4 0  9993
2 52666  53.2190  82.0572 0001295  93.3992 266.7149 15.08835020177140
STARLINK-4076           
1 52667U 22053M   25208.90554679  .00000905  00000+0  74948-4 0  9999
2 52667  53.2173  83.2172 0001315  89.5724 270.5418 15.08837735177118
STARLINK-4067           
1 52668U 22053N   25209.04538037  .00000373  00000+0  41524-4 0  9999
2 52668  53.2158  82.5886 0001252  89.0566 271.0569 15.08844561177135
